C/2024 G2 (ATLAS),e,122.1259,171.3965,328.7372,734.3546,0.0000495,0.99271709,0.0000,06/13.5332/2025,2000,g  7.0,4.0
# From MPC184412
C/2024 G3 (ATLAS),h,01/13.4274/2025,116.8475,220.3434,108.1261,1.000007,0.093546,2000,9.0,4.0
# From MPC184412
C/2024 G4 (PANSTARRS),e,33.0264,152.9824,131.4209,3184,0.0000055,0.99846107,0.0000,03/21.6212/2026,2000,g  8.0,4.0
# From MPEC 2024-JC6
C/2024 G5 (Leonard),e,50.3869,316.3932,209.5786,569.9544,0.0000724,0.99481884,0.0000,09/07.0516/2024,2000,g 13.0,4.0
# From MPC184412
C/2024 G6 (ATLAS),h,02/20.7642/2026,120.4557,250.9518,23.4411,1.002178,6.429739,2000,5.5,4.0
# From MPC184412
C/2024 G7 (ATLAS),h,02/10.1152/2025,131.5155,191.9622,289.6572,1.001914,6.027666,2000,7.0,4.0
# From MPEC 2024-Q05
A/2024 G8,e,97.4125,11.2484,249.1574,141.7040,0.0005843,0.99172596,0.0000,06/15.5856/2024,2000,g 20.0,2.0
# From MPEC 2024-JU4
P/2024 J1 (PANSTARRS),e,13.1590,321.9389,200.3646,3.808662,0.1326006,0.30771668,76.0726,06/07.0/2025,2000,g 14.5,4.0
# From MPC182882
C/2024 J2 (Wierzchos),e,79.2971,189.0592,143.1605,147.3296,0.0005511,0.98770856,0.0000,03/19.7844/2025,2000,g 11.5,4.0
# From MPC184412
C/2024 J3 (ATLAS),h,11/25.3218/2026,75.6399,285.9612,74.0888,1.000768,3.865136,2000,5.0,4.0
# From MPC184412
C/2024 J4 (Lemmon),e,117.5302,19.3058,127.8577,6349,0.0000019,0.99910296,0.0000,04/25.9992/2025,2000,g  8.0,4.0
# From MPEC 2024-LB4
P/2024 K1 (PANSTARRS),e,1.7862,251.6894,351.9289,6.845052,0.0550350,0.49518038,21.6865,06/07.0/2025,2000,g 13.5,4.0
# From MPC184413
C/2024 L1 (PANSTARRS),e,99.1660,45.1395,171.7954,11.46599,0.0253856,0.53356433,1.1385,06/07.0/2025,2000,g 10.0,4.0
# From MPEC 2024-P23
C/2024 L2 (PANSTARRS),e,139.4875,266.2859,345.6194,471.6865,0.0000962,0.98234783,0.0000,06/12.8314/2025,2000,g  7.5,3.2
# From MPEC 2024-RQ6
C/2024 L3 (PANSTARRS),h,11/24.1774/2023,111.5923,294.9946,59.0777,1.003905,6.857968,2000,9.5,4.0
# From MPC184413
C/2024 L5 (ATLAS),h,03/10.3958/2025,166.5730,139.1771,290.5150,1.037147,3.432418,2000,9.0,4.0
# From MPC184413
C/2024 M1 (ATLAS),e,73.7096,76.2146,345.5849,29.80954,0.0060558,0.94286291,1.2051,06/07.0/2025,2000,g 12.0,4.0
# From MPEC 2024-RQ6
C/2024 N1 (PANSTARRS),h,10/18.9213/2025,88.7770,323.0177,91.2577,1.000755,4.398081,2000,10.5,4.0
# From MPC184413
C/2024 N3 (Sarneczky),h,04/11.4366/2025,88.7289,82.6088,86.8850,1.001350,5.014572,2000,8.0,4.0
# From MPC184413
C/2024 N4 (Sarneczky),h,01/10.1650/2025,49.7739,339.6578,116.7023,1.004393,5.397759,2000,7.5,4.0
# From MPEC 2024-PC5
C/2024 O1 (PANSTARRS),h,01/28.5634/2023,59.0788,303.3411,349.8910,1.000681,6.606926,2000,8.5,4.0
# From MPEC 2024-UA9
P/2024 O2 (PANSTARRS),e,28.9766,6.8056,310.7859,7.382309,0.0491378,0.49911752,20.2860,06/07.0/2025,2000,g 12.0,4.0
# From MPEC 2025-A40
P/2024 OC2 (PANSTARRS),e,7.6713,136.6170,258.5377,2.625489,0.2316801,0.77418659,55.7615,06/07.0/2025,2000,g 20.5,4.0
# From MPC184413
C/2024 PN7 (PANSTARRS),e,101.2096,358.5841,74.2736,67.31053,0.0017848,0.97735028,0.0000,12/06.4353/2024,2000,g 15.2,4.0
# From MPEC 2024-UQ8
P/2024 Q1 (PANSTARRS),e,5.0126,23.1195,284.5039,3.520557,0.1492062,0.53487829,53.3217,06/07.0/2025,2000,g 17.0,4.0
# From MPC184413
C/2024 Q3 (PANSTARRS),h,03/05.2201/2025,121.3783,337.2871,70.1278,1.001497,2.091554,2000,15.0,4.0
# From MPC182882
C/2024 Q4 (PANSTARRS),e,3.3145,324.2755,133.0471,708.4896,0.0000523,0.99235126,0.0000,11/12.1969/2024,2000,g 10.0,4.0
# From MPEC 2024-TP3
P/2024 R1 (PANSTARRS),e,12.7361,84.9824,230.6717,3.454203,0.1535261,0.49310947,54.6812,06/07.0/2025,2000,g 18.0,4.0
# From MPC182883
P/2024 R2 (PANSTARRS),e,15.1155,193.0159,203.9418,3.149366,0.1763475,0.26869520,43.7767,06/07.0/2025,2000,g 15.5,4.0
# From MPEC 2024-YC7
P/2024 R3 (PANSTARRS),e,14.7194,33.2506,309.2846,3.201029,0.1720955,0.26719999,67.9198,06/07.0/2025,2000,g 15.0,4.0
# From MPC184413
C/2024 R4 (PANSTARRS),h,10/26.6110/2027,95.3611,345.9343,108.9915,1.002653,4.409098,2000,6.5,4.0
# From MPC182883
C/2024 S1 (ATLAS),e,142.0003,347.5022,69.4522,87.25665,0.0012092,0.99990852,0.0000,10/28.4812/2024,2000,g 15.5,4.0
# From MPEC 2025-A40
P/2024 S2 (Rankin),e,7.5256,8.3392,49.1695,5.038674,0.0871424,0.59360826,22.9792,06/07.0/2025,2000,g 15.0,4.0
# From MPC182883
P/2024 T1 (Rankin),e,17.6202,279.7109,164.8648,6.599494,0.0581351,0.65345816,14.5110,06/07.0/2025,2000,g 14.5,4.0
# From MPC184413
P/2024 T2 (Rankin),e,12.9290,113.0615,343.8267,6.171690,0.0642833,0.68042912,11.6141,06/07.0/2025,2000,g 16.0,4.0
# From MPC182883
C/2024 T3 (PANSTARRS),e,53.4767,74.8331,336.8865,86.14061,0.0012328,0.95685923,0.1033,06/07.0/2025,2000,g 11.5,4.0
# From MPC182883
C/2024 T5 (ATLAS),h,05/06.3483/2027,52.3871,100.6819,352.4367,1.001944,3.842066,2000,5.5,4.0
# From MPC182883
C/2024 U1 (PANSTARRS),e,128.7552,270.2639,188.0802,489.0265,0.0000911,0.99011067,0.0000,06/30.4361/2024,2000,g 10.0,4.0
# From MPC182883
A/2024 U2,h,01/14.3740/2026,120.6712,56.0699,29.7694,1.003415,8.180888,2000,12.1,2.0
# From MPC184413
C/2024 V1 (Borisov),e,54.6257,328.1946,168.6681,233.2268,0.0002767,0.99005917,0.0000,04/04.1127/2025,2000,g 14.8,4.0
# From MPEC 2024-YC7
C/2024 V2 (Sarneczky),e,95.9718,102.2019,13.7225,39.28748,0.0040024,0.96836017,0.8612,06/07.0/2025,2000,g 19.0,4.0
# From MPC182883
C/2024 W1 (PANSTARRS),e,83.2004,310.7275,256.7386,44.86805,0.0032794,0.94292773,0.2620,06/07.0/2025,2000,g 15.0,4.0
# From MPC182883
A/2024 W2,h,02/27.4256/2025,116.6177,241.9386,168.0046,1.002713,3.720676,2000,15.6,2.0
# From MPC182884
C/2024 X1 (Fazekas),e,6.4625,352.0222,124.3433,9.475169,0.0337928,0.59719633,358.0560,06/07.0/2025,2000,g 11.3,4.0
# From MPC184413
C/2024 X2 (ATLAS),e,109.2212,122.5228,315.7809,50.56046,0.0027415,0.92728903,359.9154,06/07.0/2025,2000,g  9.6,4.0
# From MPC184413
P/2024 X3 (PANSTARRS),e,2.9723,113.3648,352.9445,6.993739,0.0532893,0.62620808,14.6131,06/07.0/2025,2000,g 14.6,4.0
# From MPEC 2025-A40
C/2024 X4 (PANSTARRS),e,34.6691,258.9431,153.2897,10.06079,0.0308856,0.64170160,357.3159,06/07.0/2025,2000,g 12.6,4.0
# From MPC182884
C/2024 Y1 (Masek),e,64.7619,112.5427,238.1426,62.19011,0.0020097,0.98677774,0.0000,11/26.8718/2024,2000,g 17.6,4.0
# From MPC182884
A/2025 A1,h,03/12.2767/2027,33.4390,101.3302,68.0618,1.004196,5.342567,2000,11.8,2.0
# From MPC184414
P/2025 A2 (PANSTARRS),e,20.7339,189.3196,278.0443,5.084092,0.0859773,0.32212706,21.0087,06/07.0/2025,2000,g 13.2,4.0
# From MPC184414
C/2025 A3 (Tsuchinshan),e,9.9768,322.4335,222.3061,10.19268,0.0302881,0.43171764,351.4880,06/07.0/2025,2000,g  9.0,4.0
# From MPC184414
C/2025 A4 (PANSTARRS),e,32.0255,69.9134,102.7981,11.05108,0.0268286,0.65394839,3.8857,06/07.0/2025,2000,g 12.4,4.0
# From MPC184414
C/2025 A6 (Lemmon),e,143.6616,108.0964,132.9600,124.5200,0.0007093,0.99574402,0.0000,11/08.5335/2025,2000,g 13.2,4.0
# From MPC184414
A/2025 A7,e,133.6497,348.8445,195.5676,4379,0.0000034,0.99934154,0.0000,03/28.1089/2025,2000,g 14.0,2.0
# From MPC182885
C/2025 B1 (PANSTARRS),h,06/26.7742/2025,39.6797,102.8409,23.5274,1.001036,3.530888,2000,12.0,4.0
# From MPC184414
C/2025 B2 (Borisov),h,09/09.9854/2026,91.7517,84.8734,78.7280,1.000040,8.244896,2000,6.2,4.0
# From MPC184414
P/2025 C1 (ATLAS),e,7.5170,9.1028,186.7991,4.195501,0.1146907,0.34547722,13.8136,06/07.0/2025,2000,g 10.8,4.0
# From MPC184414
C/2025 D1 (Groeller),h,05/20.0519/2028,84.4648,312.8984,185.8926,1.002955,14.118888,2000,1.2,4.0
# From MPC182885
P/2025 D2 (PANSTARRS),e,5.3344,256.7342,314.0559,8.921303,0.0369881,0.17873380,313.8591,06/07.0/2025,2000,g  8.2,4.0
# From MPC184414
P/2025 D3 (PANSTARRS),e,9.6443,186.6354,294.4845,3.966731,0.1247542,0.25235155,39.4495,06/07.0/2025,2000,g 14.7,4.0
# From MPC184414
P/2025 D4 (ATLAS),e,15.9405,233.1200,332.8895,8.903084,0.0371017,0.63440382,4.1819,06/07.0/2025,2000,g 13.2,4.0
# From MPC184415
C/2025 D5 (PANSTARRS),e,73.3811,0.7379,211.4927,3363,0.0000051,0.99940162,0.0000,05/13.2913/2025,2000,g 17.6,4.0
# From MPC184415
C/2025 D6 (ATLAS),e,145.7902,151.4874,285.4043,1597,0.0000154,0.99843232,0.0000,12/11.3848/2024,2000,g 13.2,4.0
# From MPC184415
C/2025 E1 (PANSTARRS),e,69.0661,344.5972,274.4213,1435,0.0000181,0.99721360,0.0000,09/23.7485/2026,2000,g  9.7,4.0
# From MPC184415
C/2025 F1 (ATLAS),e,109.2363,122.7043,334.2283,298.3042,0.0001913,0.99641314,0.0000,04/20.4725/2025,2000,g 18.0,4.0
# From MPC184415
C/2025 F2 (SWAN),h,05/01.1615/2025,90.3649,329.8408,153.8372,1.000105,0.333494,2000,11.2,4.0
# From MPC184415
C/2025 J1 (Borisov),e,95.4403,273.9986,166.7598,8132,0.0000013,0.99956061,0.0000,06/11.7764/2026,2000,g  9.1,4.0
# From MPEC 2025-KB0
C/2025 K1 (ATLAS),h,10/08.3398/2025,147.8989,97.4939,270.8238,1.001393,0.335178,2000,12.2,4.0
# From MPEC 2025-L17
C/2025 K2 (PANSTARRS),e,113.2794,113.4440,233.6299,12.84424,0.0214112,0.77932141,356.8445,06/07.0/2025,2000,g 13.7,4.0
# From MPEC 2025-L43
C/2025 K3 (PANSTARRS),h,12/13.7689/2028,104.9329,350.6172,188.5944,1.001673,3.468840,2000,6.4,4.0
# From  98, 1083
1P/Halley,e,162.2163,59.6243,112.5343,17.86435,0.0130534,0.96733822,187.2572,06/07.0/2025,2000,g  4.0,6.0
# From MPEC 2024-TP3
2P/Encke,e,11.3441,334.0146,187.2796,2.218174,0.2983393,0.84711933,177.0378,06/07.0/2025,2000,g 11.5,6.0
# From  76, 1135
3D/Biela,e,7.8877,276.1865,192.2940,3.539585,0.1480047,0.76756585,357.1585,06/07.0/2025,2000,g 11.0,6.0
# From  76, 1135
3D-A/Biela,e,7.2156,276.6832,192.1273,3.550537,0.1473204,0.76711643,27.5309,06/07.0/2025,2000,g 11.0,6.0
# From  76, 1135
3D-B/Biela,e,7.8798,276.2012,192.2552,3.540322,0.1479585,0.76786423,356.8819,06/07.0/2025,2000,g 11.0,6.0
# From MPEC 2023-FK0
4P/Faye,e,8.0031,192.9114,207.1418,3.829946,0.1314968,0.57632982,179.7543,06/07.0/2025,2000,g  8.0,6.0
# From  27, 116
5D/Brorsen,e,18.6308,94.9065,20.3027,3.158451,0.1755872,0.83787160,137.2507,06/07.0/2025,2000,g 10.5,6.0
# From MPEC 2022-WD2
6P/d'Arrest,e,19.4997,138.9508,178.0521,3.497686,0.1506721,0.61191728,204.8579,06/07.0/2025,2000,g  7.5,16.0
# From MPEC 2023-A50
7P/Pons-Winnecke,e,22.5914,93.2818,172.5187,3.391447,0.1578071,0.64715163,231.3965,06/07.0/2025,2000,g 10.0,6.0
# From MPEC 2022-HC2
